[{"OBJECT_NAME":"STARLINK-5049","OBJECT_ID":"2023-094AE","EPOCH":"2026-03-09T22:00:01.999584","MEAN_MOTION":15.06402427,"ECCENTRICITY":0.00021185,"INCLINATION":43.0015,"RA_OF_ASC_NODE":16.0734,"ARG_OF_PERICENTER":260.7363,"MEAN_ANOMALY":122.1904,"EPHEMERIS_TYPE":0,"CLASSIFICATION_TYPE":"U","NORAD_CAT_ID":57246,"ELEMENT_SET_NO":999,"REV_AT_EPOCH":578,"BSTAR":0.0021417871,"MEAN_MOTION_DOT":0.00032025,"MEAN_MOTION_DDOT":0},{"OBJECT_NAME":"JILIN-01 KUANFU 02B 1","OBJECT_ID":"2024-169A","EPOCH":"2026-03-09T22:23:47.298048","MEAN_MOTION":15.0926333,"ECCENTRICITY":0.00080135,"INCLINATION":97.5562,"RA_OF_ASC_NODE":159.9206,"ARG_OF_PERICENTER":20.9587,"MEAN_ANOMALY":339.1969,"EPHEMERIS_TYPE":0,"CLASSIFICATION_TYPE":"U","NORAD_CAT_ID":61189,"ELEMENT_SET_NO":999,"REV_AT_EPOCH":8085,"BSTAR":0.00041363535,"MEAN_MOTION_DOT":6.529e-5,"MEAN_MOTION_DDOT":0}]
